{
  "type": "FeatureCollection",
  "features": [
    {
      "type": "Feature",
      "properties": {
        "norad_id": 36073,
        "name": "COSMOS 2251 DEB",
        "group": "cosmos-2251-debris",
        "lat": 54.01369408868422,
        "lon": 107.17675205421055,
        "alt_km": 774.484299436479,
        "timestamp": "2025-12-19T08:58:49.734211+00:00",
        "meta_object_name": "COSMOS 2251 DEB",
        "meta_object_id": "1993-036AYL",
        "meta_epoch": "2025-12-18T03:58:06.481920",
        "meta_mean_motion": 14.34959898,
        "meta_eccentricity": 0.00240895,
        "meta_inclination": 74.0326,
        "meta_ra_of_asc_node": 312.6126,
        "meta_arg_of_pericenter": 19.0207,
        "meta_mean_anomaly": 341.1839,
        "meta_ephemeris_type": 0,
        "meta_classification_type": "U",
        "meta_norad_cat_id": 36073,
        "meta_element_set_no": 999,
        "meta_rev_at_epoch": 70285,
        "meta_bstar": 0.0001893667,
        "meta_mean_motion_dot": 5.14e-06,
        "meta_mean_motion_ddot": 0,
        "tle_line1": "1 36073U 93036AYL 25352.16535280  .00000514  00000+0  18937-3 0  9997",
        "tle_line2": "2 36073  74.0326 312.6126 0024089  19.0207 341.1839 14.34959898702857"
      },
      "geometry": {
        "type": "Point",
        "coordinates": [
          107.17675205421055,
          54.01369408868422
        ]
      }
    },
    {
      "type": "Feature",
      "properties": {
        "norad_id": 36074,
        "name": "COSMOS 2251 DEB",
        "group": "cosmos-2251-debris",
        "lat": 64.96500700387071,
        "lon": 110.19259859193684,
        "alt_km": 720.9108559171736,
        "timestamp": "2025-12-19T08:58:49.734221+00:00",
        "meta_object_name": "COSMOS 2251 DEB",
        "meta_object_id": "1993-036AYM",
        "meta_epoch": "2025-12-17T04:55:34.739616",
        "meta_mean_motion": 14.43760583,
        "meta_eccentricity": 0.00415505,
        "meta_inclination": 73.9924,
        "meta_ra_of_asc_node": 332.1608,
        "meta_arg_of_pericenter": 62.4035,
        "meta_mean_anomaly": 298.1332,
        "meta_ephemeris_type": 0,
        "meta_classification_type": "U",
        "meta_norad_cat_id": 36074,
        "meta_element_set_no": 999,
        "meta_rev_at_epoch": 85974,
        "meta_bstar": 0.00075567049,
        "meta_mean_motion_dot": 2.571e-05,
        "meta_mean_motion_ddot": 0,
        "tle_line1": "1 36074U 93036AYM 25351.20526319  .00002571  00000+0  75567-3 0  9992",
        "tle_line2": "2 36074  73.9924 332.1608 0041550  62.4035 298.1332 14.43760583859746"
      },
      "geometry": {
        "type": "Point",
        "coordinates": [
          110.19259859193684,
          64.96500700387071
        ]
      }
    },
    {
      "type": "Feature",
      "properties": {
        "norad_id": 36366,
        "name": "COSMOS 2251 DEB",
        "group": "cosmos-2251-debris",
        "lat": 22.34541978425033,
        "lon": 74.21341554618704,
        "alt_km": 821.8938910652705,
        "timestamp": "2025-12-19T08:58:49.734231+00:00",
        "meta_object_name": "COSMOS 2251 DEB",
        "meta_object_id": "1993-036AYT",
        "meta_epoch": "2025-12-18T10:28:10.933824",
        "meta_mean_motion": 14.33441246,
        "meta_eccentricity": 0.00903868,
        "meta_inclination": 74.0662,
        "meta_ra_of_asc_node": 262.6684,
        "meta_arg_of_pericenter": 289.8178,
        "meta_mean_anomaly": 69.3247,
        "meta_ephemeris_type": 0,
        "meta_classification_type": "U",
        "meta_norad_cat_id": 36366,
        "meta_element_set_no": 999,
        "meta_rev_at_epoch": 86370,
        "meta_bstar": 0.0013274586,
        "meta_mean_motion_dot": 3.811e-05,
        "meta_mean_motion_ddot": 0,
        "tle_line1": "1 36366U 93036AYT 25352.43623766  .00003811  00000+0  13275-2 0  9991",
        "tle_line2": "2 36366  74.0662 262.6684 0090386 289.8178  69.3247 14.33441246863701"
      },
      "geometry": {
        "type": "Point",
        "coordinates": [
          74.21341554618704,
          22.34541978425033
        ]
      }
    },
    {
      "type": "Feature",
      "properties": {
        "norad_id": 36367,
        "name": "COSMOS 2251 DEB",
        "group": "cosmos-2251-debris",
        "lat": 29.748617596805015,
        "lon": 30.857375530735474,
        "alt_km": 1090.4181086919716,
        "timestamp": "2025-12-19T08:58:49.734241+00:00",
        "meta_object_name": "COSMOS 2251 DEB",
        "meta_object_id": "1993-036AYU",
        "meta_epoch": "2025-12-16T09:14:18.433248",
        "meta_mean_motion": 13.86349505,
        "meta_eccentricity": 0.02621043,
        "meta_inclination": 74.1014,
        "meta_ra_of_asc_node": 225.2719,
        "meta_arg_of_pericenter": 297.3835,
        "meta_mean_anomaly": 60.0842,
        "meta_ephemeris_type": 0,
        "meta_classification_type": "U",
        "meta_norad_cat_id": 36367,
        "meta_element_set_no": 999,
        "meta_rev_at_epoch": 57580,
        "meta_bstar": 0.0011645262,
        "meta_mean_motion_dot": 1.741e-05,
        "meta_mean_motion_ddot": 0,
        "tle_line1": "1 36367U 93036AYU 25350.38493557  .00001741  00000+0  11645-2 0  9996",
        "tle_line2": "2 36367  74.1014 225.2719 0262104 297.3835  60.0842 13.86349505575803"
      },
      "geometry": {
        "type": "Point",
        "coordinates": [
          30.857375530735474,
          29.748617596805015
        ]
      }
    },
    {
      "type": "Feature",
      "properties": {
        "norad_id": 36369,
        "name": "COSMOS 2251 DEB",
        "group": "cosmos-2251-debris",
        "lat": -51.00996335662883,
        "lon": -101.49396263637533,
        "alt_km": 657.3425156020448,
        "timestamp": "2025-12-19T08:58:49.734251+00:00",
        "meta_object_name": "COSMOS 2251 DEB",
        "meta_object_id": "1993-036AYW",
        "meta_epoch": "2025-12-16T11:29:35.574144",
        "meta_mean_motion": 14.73629062,
        "meta_eccentricity": 0.00109821,
        "meta_inclination": 74.0316,
        "meta_ra_of_asc_node": 63.4356,
        "meta_arg_of_pericenter": 140.037,
        "meta_mean_anomaly": 220.1613,
        "meta_ephemeris_type": 0,
        "meta_classification_type": "U",
        "meta_norad_cat_id": 36369,
        "meta_element_set_no": 999,
        "meta_rev_at_epoch": 85977,
        "meta_bstar": 0.00089048503,
        "meta_mean_motion_dot": 5.781e-05,
        "meta_mean_motion_ddot": 0,
        "tle_line1": "1 36369U 93036AYW 25350.47888396  .00005781  00000+0  89049-3 0  9999",
        "tle_line2": "2 36369  74.0316  63.4356 0010982 140.0370 220.1613 14.73629062859773"
      },
      "geometry": {
        "type": "Point",
        "coordinates": [
          -101.49396263637533,
          -51.00996335662883
        ]
      }
    },
    {
      "type": "Feature",
      "properties": {
        "norad_id": 36371,
        "name": "COSMOS 2251 DEB",
        "group": "cosmos-2251-debris",
        "lat": 67.04054300674407,
        "lon": -168.7682171567315,
        "alt_km": 654.486960014864,
        "timestamp": "2025-12-19T08:58:49.734261+00:00",
        "meta_object_name": "COSMOS 2251 DEB",
        "meta_object_id": "1993-036AYY",
        "meta_epoch": "2025-12-17T04:24:24.496704",
        "meta_mean_motion": 14.70697295,
        "meta_eccentricity": 0.00093434,
        "meta_inclination": 74.0124,
        "meta_ra_of_asc_node": 152.897,
        "meta_arg_of_pericenter": 191.9871,
        "meta_mean_anomaly": 168.1079,
        "meta_ephemeris_type": 0,
        "meta_classification_type": "U",
        "meta_norad_cat_id": 36371,
        "meta_element_set_no": 999,
        "meta_rev_at_epoch": 71510,
        "meta_bstar": 0.0014821732,
        "meta_mean_motion_dot": 9.018e-05,
        "meta_mean_motion_ddot": 0,
        "tle_line1": "1 36371U 93036AYY 25351.18361686  .00009018  00000+0  14822-2 0  9992",
        "tle_line2": "2 36371  74.0124 152.8970 0009343 191.9871 168.1079 14.70697295715103"
      },
      "geometry": {
        "type": "Point",
        "coordinates": [
          -168.7682171567315,
          67.04054300674407
        ]
      }
    },
    {
      "type": "Feature",
      "properties": {
        "norad_id": 36379,
        "name": "COSMOS 2251 DEB",
        "group": "cosmos-2251-debris",
        "lat": 46.365925895549395,
        "lon": 97.12568777418721,
        "alt_km": 755.6417623225798,
        "timestamp": "2025-12-19T08:58:49.734271+00:00",
        "meta_object_name": "COSMOS 2251 DEB",
        "meta_object_id": "1993-036AZG",
        "meta_epoch": "2025-12-17T15:24:04.295232",
        "meta_mean_motion": 14.36087226,
        "meta_eccentricity": 0.00447272,
        "meta_inclination": 74.0127,
        "meta_ra_of_asc_node": 297.8094,
        "meta_arg_of_pericenter": 65.3038,
        "meta_mean_anomaly": 112.1684,
        "meta_ephemeris_type": 0,
        "meta_classification_type": "U",
        "meta_norad_cat_id": 36379,
        "meta_element_set_no": 999,
        "meta_rev_at_epoch": 64898,
        "meta_bstar": 0.00025368539,
        "meta_mean_motion_dot": 7.21e-06,
        "meta_mean_motion_ddot": 0,
        "tle_line1": "1 36379U 93036AZG 25351.64171638  .00000721  00000+0  25369-3 0  9998",
        "tle_line2": "2 36379  74.0127 297.8094 0044727  65.3038 112.1684 14.36087226648986"
      },
      "geometry": {
        "type": "Point",
        "coordinates": [
          97.12568777418721,
          46.365925895549395
        ]
      }
    }
  ]
}